{
    "links": {
        "self": "http://www.neowsapp.com/rest/v1/neo/3842948?api_key=iIulBulltgU6a56xZRHN4H3l9WmuAYTsLGpBGhQ2"
    },
    "id": "3842948",
    "neo_reference_id": "3842948",
    "name": "(2019 MK1)",
    "designation": "2019 MK1",
    "nasa_jpl_url": "http://ssd.jpl.nasa.gov/sbdb.cgi?sstr=3842948",
    "absolute_magnitude_h": 23.9,
    "estimated_diameter": {
        "kilometers": {
            "estimated_diameter_min": 0.04411182,
            "estimated_diameter_max": 0.0986370281
        },
        "meters": {
            "estimated_diameter_min": 44.1118199997,
            "estimated_diameter_max": 98.6370281305
        },
        "miles": {
            "estimated_diameter_min": 0.0274098057,
            "estimated_diameter_max": 0.0612901888
        },
        "feet": {
            "estimated_diameter_min": 144.7238235278,
            "estimated_diameter_max": 323.6123073718
        }
    },
    "is_potentially_hazardous_asteroid": false,
    "close_approach_data": [
        {
            "close_approach_date": "2019-06-09",
            "close_approach_date_full": "2019-Jun-09 20:04",
            "epoch_date_close_approach": 1560110640000,
            "relative_velocity": {
                "kilometers_per_second": "15.483359915",
                "kilometers_per_hour": "55740.095693986",
                "miles_per_hour": "34634.7277938548"
            },
            "miss_distance": {
                "astronomical": "0.069254914",
                "lunar": "26.940161546",
                "kilometers": "10360387.62143318",
                "miles": "6437646.350330684"
            },
            "orbiting_body": "Earth"
        }
    ],
    "orbital_data": {
        "orbit_id": "1",
        "orbit_determination_date": "2019-06-28 09:42:02",
        "first_observation_date": "2019-06-25",
        "last_observation_date": "2019-06-28",
        "data_arc_in_days": 3,
        "observations_used": 12,
        "orbit_uncertainty": "9",
        "minimum_orbit_intersection": ".060594",
        "jupiter_tisserand_invariant": "4.873",
        "epoch_osculation": "2458661.5",
        "eccentricity": ".4653306627116906",
        "semi_major_axis": "1.2994973126479",
        "inclination": "10.90803108041777",
        "ascending_node_longitude": "239.5461146023931",
        "orbital_period": "541.0800300199754",
        "perihelion_distance": ".6948013669613915",
        "perihelion_argument": "290.4577816043152",
        "aphelion_distance": "1.904193258334408",
        "perihelion_time": "2458589.429139218404",
        "mean_anomaly": "47.95133518495722",
        "mean_motion": ".6653359577634193",
        "equinox": "J2000",
        "orbit_class": {
            "orbit_class_type": "APO",
            "orbit_class_description": "Near-Earth asteroid orbits which cross the Earth’s orbit similar to that of 1862 Apollo",
            "orbit_class_range": "a (semi-major axis) > 1.0 AU; q (perihelion) < 1.017 AU"
        }
    },
    "is_sentry_object": false
}